ORBCOMM FM20            
1 25416U 98046D   25196.89581007  .00000416  00000+0  18553-3 0  9991
2 25416  44.9951  45.3094 0001341  74.9323 285.1673 14.37249236408436
ORBCOMM FM16            
1 25417U 98046E   25196.92708404  .00000580  00000+0  23227-3 0  9994
2 25417  44.9947  36.3535 0005111  86.3439 273.7994 14.38966673408392
ORBCOMM FM15            
1 25418U 98046F   25197.53535423  .00000610  00000+0  24355-3 0  9999
2 25418  44.9979  38.6973 0004718  88.9841 271.1548 14.38609841408642
ORBCOMM FM14            
1 25419U 98046G   25196.92090662  .00000613  00000+0  24286-3 0  9999
2 25419  44.9966  39.7680 0003567  81.4977 278.6275 14.38972157408355
ORBCOMM FM13            
1 25420U 98046H   25197.54647681  .00000545  00000+0  22651-3 0  9997
2 25420  44.9982  45.0601 0005572  67.2687 292.8750 14.37718647408599
ORBCOMM FM21            
1 25475U 98053A   25197.48997391  .00000610  00000+0  24963-3 0  9995
2 25475  45.0078 130.7210 0002989 345.0868  14.9891 14.37390531401794
ORBCOMM FM22            
1 25476U 98053B   25196.88060547  .00000579  00000+0  23438-3 0  9993
2 25476  45.0069 128.2273 0004745 354.4638   5.6157 14.38435647401406
ORBCOMM FM23            
1 25477U 98053C   25196.79202225  .00000581  00000+0  23898-3 0  9998
2 25477  45.0075 136.1093 0004047 345.0058  15.0669 14.37573843401514
